NORAD_CAT_ID,OBJECT_NAME,OBJECT_TYPE,EPOCH,MEAN_MOTION,ECCENTRICITY,INCLINATION,RA_OF_ASC_NODE,ARG_OF_PERICENTER,MEAN_ANOMALY,BSTAR,MEAN_MOTION_DOT,MEAN_MOTION_DDOT,TLE_LINE0,TLE_LINE1,TLE_LINE2,SEMIMAJOR_AXIS,PERIOD,APOGEE,PERIGEE,DECAYED
53610.0,STARLINK-4610,PAYLOAD,2022-10-05 14:00:01,15.73218527,0.0001069,53.2151,97.682,104.1069,109.194,-0.00037655,-0.00053173,0.0,0 STARLINK-4610,1 53610U 22104Y   22278.58335648 -.00053173  00000-0 -37655-3 0  9997,2 53610  53.2151  97.6820 0001069 104.1069 109.1940 15.73218527  1302,6727.842,91.532,350.427,348.98800000000006,0.0
53610.0,STARLINK-4610,PAYLOAD,2022-10-05 22:00:00,15.73141697,0.0001009,53.215,96.0344,87.3372,214.8398,0.00016881,0.00023078,0.0,0 STARLINK-4610,1 53610U 22104Y   22278.91667824  .00023078  00000-0  16881-3 0  9995,2 53610  53.2150  96.0344 0001009  87.3372 214.8398 15.73141697  1302,6728.061,91.537,350.605,349.24800000000016,0.0
53610.0,STARLINK-4610,PAYLOAD,2022-10-06 06:00:00,15.73290742,7.25e-05,53.216,94.3822,86.4309,304.5988,-0.0021808,-0.00297242,0.0,0 STARLINK-4610,1 53610U 22104Y   22279.25001157 -.00297242  00000-0 -21808-2 0  9996,2 53610  53.2160  94.3822 0000725  86.4309 304.5988 15.73290742  6188,6727.636,91.528,349.98900000000015,349.014,0.0
53610.0,STARLINK-4610,PAYLOAD,2022-10-06 14:00:01,15.73204611,0.0001028,53.2169,92.7316,85.1707,34.7652,-0.0067681,-0.00858818,0.0,0 STARLINK-4610,1 53610U 22104Y   22279.58334491 -.00858818  00000-0 -67681-2 0  9993,2 53610  53.2169  92.7316 0001028  85.1707  34.7652 15.73204611  1301,6727.882,91.533,350.439,349.055,0.0
53610.0,STARLINK-4610,PAYLOAD,2022-10-06 22:42:55,15.72513012,9.7e-05,53.2174,90.9373,77.3932,299.8586,-0.0085708,-0.01051129,0.0,0 STARLINK-4610,1 53610U 22104Y   22279.94646991 -.01051129  00000-0 -85708-2 0  9995,2 53610  53.2174  90.9373 0000970  77.3932 299.8586 15.72513012  1305,6729.855,91.573,352.372,351.06699999999995,0.0
53610.0,STARLINK-4610,PAYLOAD,2022-10-07 00:00:00,15.72393034,9.87e-05,53.2173,90.6724,77.8338,242.6808,-0.0086377,-0.01053622,0.0,0 STARLINK-4610,1 53610U 22104Y   22280.00001157 -.01053622  00000-0 -86377-2 0  9996,2 53610  53.2173  90.6724 0000987  77.8338 242.6808 15.72393034  6302,6730.196999999999,91.58,352.726,351.398,0.0
53610.0,STARLINK-4610,PAYLOAD,2022-10-07 14:00:01,15.71066773,0.0001102,53.2171,87.7906,74.0506,308.9759,-0.0091904,-0.01058854,0.0,0 STARLINK-4610,1 53610U 22104Y   22280.58334491 -.01058854  00000-0 -91904-2 0  9993,2 53610  53.2171  87.7906 0001102  74.0506 308.9759 15.71066773  1307,6733.984,91.657,356.591,355.107,0.0
53610.0,STARLINK-4610,PAYLOAD,2022-10-07 22:00:00,15.70298815,0.0001119,53.2172,86.149,77.5283,31.3955,-0.0093566,-0.01045116,0.0,0 STARLINK-4610,1 53610U 22104Y   22280.91667824 -.01045116  00000-0 -93566-2 0  9992,2 53610  53.2172  86.1490 0001119  77.5283  31.3955 15.70298815  6456,6736.179,91.702,358.798,357.291,0.0
53610.0,STARLINK-4610,PAYLOAD,2022-10-08 14:00:01,15.68789481,0.0001143,53.217,82.866,78.4302,199.5427,-0.01011,-0.01058681,0.0,0 STARLINK-4610,1 53610U 22104Y   22281.58334491 -.01058681  00000-0 -10110-1 0  9991,2 53610  53.2170  82.8660 0001143  78.4302 199.5427 15.68789481  6558,6740.499,91.791,363.135,361.594,0.0
53610.0,STARLINK-4610,PAYLOAD,2022-10-08 22:00:00,15.68023581,0.0001081,53.217,81.2299,70.2683,290.8634,-0.0103299999999999,-0.01049017,0.0,0 STARLINK-4610,1 53610U 22104Y   22281.91667824 -.01049017  00000-0 -10330-1 0  9994,2 53610  53.2170  81.2299 0001081  70.2683 290.8634 15.68023581  1318,6742.694,91.835,365.288,363.83,0.0
53610.0,STARLINK-4610,PAYLOAD,2022-10-09 14:00:01,15.66507013,0.0001336,53.2173,77.9581,57.7375,106.9707,-0.011031,-0.01052409,0.0,0 STARLINK-4610,1 53610U 22104Y   22282.58334491 -.01052409  00000-0 -11031-1 0  9997,2 53610  53.2173  77.9581 0001336  57.7375 106.9707 15.66507013  1300,6747.045,91.924,369.811,368.009,0.0
53610.0,STARLINK-4610,PAYLOAD,2022-10-09 22:00:00,15.657435500000002,0.0001304,53.2172,76.3271,56.1535,188.9742,-0.011294,-0.01045401,0.0,0 STARLINK-4610,1 53610U 22104Y   22282.91667824 -.01045401  00000-0 -11294-1 0  9998,2 53610  53.2172  76.3271 0001304  56.1535 188.9742 15.65743550  1300,6749.238,91.969,371.983,370.223,0.0
53610.0,STARLINK-4610,PAYLOAD,2022-10-10 14:00:01,15.64228023,0.0001240999999999,53.2174,73.067,51.5343,351.6933,-0.012078,-0.01051218,0.0,0 STARLINK-4610,1 53610U 22104Y   22283.58334491 -.01051218  00000-0 -12078-1 0  9997,2 53610  53.2174  73.0670 0001241  51.5343 351.6933 15.64228023  6864,6753.597,92.058,376.3,374.624,0.0
53610.0,STARLINK-4610,PAYLOAD,2022-10-10 22:00:01,15.63466028,0.0001227,53.2172,71.4412,61.613,59.3611,-0.012388,-0.01046514,0.0,0 STARLINK-4610,1 53610U 22104Y   22283.91668981 -.01046514  00000-0 -12388-1 0  9995,2 53610  53.2172  71.4412 0001227  61.6130  59.3611 15.63466028  1305,6755.791,92.103,378.485,376.827,0.0
53610.0,STARLINK-4610,PAYLOAD,2022-10-11 14:00:01,15.61947283,0.0001262,53.2176,68.1924,61.4005,212.1331,-0.013153,-0.01062845,0.0,0 STARLINK-4610,1 53610U 22104Y   22284.58334491 -.01062845  00000-0 -13153-1 0  9991,2 53610  53.2176  68.1924 0001262  61.4005 212.1331 15.61947283  1301,6760.17,92.193,382.888,381.181,0.0
53610.0,STARLINK-4610,PAYLOAD,2022-10-11 22:00:00,15.61192773,0.0001341999999999,53.2169,66.572,43.8383,304.6354,-0.013632,-0.01069027,0.0,0 STARLINK-4610,1 53610U 22104Y   22284.91667824 -.01069027  00000-0 -13632-1 0  9998,2 53610  53.2169  66.5720 0001342  43.8383 304.6354 15.61192773  1309,6762.348000000001,92.237,385.12,383.305,0.0
53610.0,STARLINK-4610,PAYLOAD,2022-10-12 06:00:00,15.60427674,0.0001248,53.2174,64.9504,49.4186,13.0899,-0.0139449999999999,-0.01062236,0.0,0 STARLINK-4610,1 53610U 22104Y   22285.25001157 -.01062236  00000-0 -13945-1 0  9999,2 53610  53.2174  64.9504 0001248  49.4186  13.0899 15.60427674  7137,6764.558000000001,92.282,387.267,385.579,0.0
53610.0,STARLINK-4610,PAYLOAD,2022-10-12 14:00:01,15.59667549,0.0001443,53.2174,63.3343,51.1629,84.4627,-0.014334,-0.01060577,0.0,0 STARLINK-4610,1 53610U 22104Y   22285.58334491 -.01060577  00000-0 -14334-1 0  9994,2 53610  53.2174  63.3343 0001443  51.1629  84.4627 15.59667549  1309,6766.755,92.327,389.597,387.644,0.0
53610.0,STARLINK-4610,PAYLOAD,2022-10-12 22:00:00,15.58910448,0.0001416,53.217,61.7191,53.2231,154.6063,-0.014808,-0.01063996,0.0,0 STARLINK-4610,1 53610U 22104Y   22285.91667824 -.01063996  00000-0 -14808-1 0  9994,2 53610  53.2170  61.7191 0001416  53.2231 154.6063 15.58910448  7230,6768.946,92.372,391.77,389.853,0.0
53610.0,STARLINK-4610,PAYLOAD,2022-10-13 14:00:01,15.57391364,0.0001355,53.2173,58.4927,44.8673,304.6347,-0.015678,-0.01063436,0.0,0 STARLINK-4610,1 53610U 22104Y   22286.58334491 -.01063436  00000-0 -15678-1 0  9994,2 53610  53.2173  58.4927 0001355  44.8673 304.6347 15.57391364  1304,6773.347,92.462,396.13,394.294,0.0
53610.0,STARLINK-4610,PAYLOAD,2022-10-13 20:00:01,15.56819366,0.0001358,53.2173,57.2856,45.1182,266.6347,-0.015944,-0.0105889,0.0,0 STARLINK-4610,1 53610U 22104Y   22286.83335648 -.01058890  00000-0 -15944-1 0  9991,2 53610  53.2173  57.2856 0001358  45.1182 266.6347 15.56819366  7370,6775.005999999999,92.496,397.791,395.951,0.0
53610.0,STARLINK-4610,PAYLOAD,2022-10-13 22:00:00,15.56631487,0.0001457,53.2171,56.8828,39.49800000000001,19.471,-0.016109,-0.01062054,0.0,0 STARLINK-4610,1 53610U 22104Y   22286.91667824 -.01062054  00000-0 -16109-1 0  9995,2 53610  53.2171  56.8828 0001457  39.4980  19.4710 15.56631487  1305,6775.551,92.507,398.403,396.429,0.0
53610.0,STARLINK-4610,PAYLOAD,2022-10-14 14:00:01,15.55109534,0.0001686,53.2175,53.6676,42.944,152.2227,-0.016971,-0.01057674,0.0,0 STARLINK-4610,1 53610U 22104Y   22287.58334491 -.01057674  00000-0 -16971-1 0  9999,2 53610  53.2175  53.6676 0001686  42.9440 152.2227 15.55109534  1300,6779.971,92.598,402.979,400.693,0.0
53610.0,STARLINK-4610,PAYLOAD,2022-10-14 16:00:00,15.54922755,0.0001539,53.2175,53.2667,41.9594,259.9737,-0.01718,-0.0106277,0.0,0 STARLINK-4610,1 53610U 22104Y   22287.66667824 -.01062770  00000-0 -17180-1 0  9993,2 53610  53.2175  53.2667 0001539  41.9594 259.9737 15.54922755  7508,6780.514,92.609,403.423,401.336,0.0
53610.0,STARLINK-4610,PAYLOAD,2022-10-14 18:00:00,15.54731883,0.0001613,53.2177,52.8657,35.30300000000001,13.3412,-0.017273,-0.01061187,0.0,0 STARLINK-4610,1 53610U 22104Y   22287.75001157 -.01061187  00000-0 -17273-1 0  9998,2 53610  53.2177  52.8657 0001613  35.3030  13.3412 15.54731883  1303,6781.069,92.62,404.028,401.84,0.0
53610.0,STARLINK-4610,PAYLOAD,2022-10-15 14:00:01,15.52834055,0.0001862,53.2175,48.859,27.8882,4.7267,-0.01853,-0.01061864,0.0,0 STARLINK-4610,1 53610U 22104Y   22288.58334491 -.01061864  00000-0 -18530-1 0  9999,2 53610  53.2175  48.8590 0001862  27.8882   4.7267 15.52834055  1304,6786.593000000003,92.734,409.722,407.194,0.0
53610.0,STARLINK-4610,PAYLOAD,2022-10-15 22:00:01,15.52073457,0.0001543,53.2171,47.2596,41.451,55.2203,-0.019005,-0.01059541,0.0,0 STARLINK-4610,1 53610U 22104Y   22288.91668981 -.01059541  00000-0 -19005-1 0  9997,2 53610  53.2171  47.2596 0001543  41.4510  55.2203 15.52073457  1307,6788.81,92.779,411.723,409.628,0.0
53610.0,STARLINK-4610,PAYLOAD,2022-10-16 14:00:01,15.50427053,0.0002011,53.2173,44.0669,36.5891,185.2799,-0.011174,-0.0059985,0.0,0 STARLINK-4610,1 53610U 22104Y   22289.58334491 -.00599850  00000-0 -11174-1 0  9997,2 53610  53.2173  44.0669 0002011  36.5891 185.2799 15.50427053  1300,6793.615,92.878,416.846,414.114,0.0
53610.0,STARLINK-4610,PAYLOAD,2022-10-16 22:00:00,15.50014014,0.0001437,53.2172,42.4727,44.9432,238.2277,-0.0094539,-0.00506059,0.0,0 STARLINK-4610,1 53610U 22104Y   22289.91667824 -.00506059  00000-0 -94539-2 0  9999,2 53610  53.2172  42.4727 0001437  44.9432 238.2277 15.50014014  7856,6794.821999999999,92.902,417.664,415.711,0.0
